IRIDIUM 106             
1 41917U 17003A   26007.90697138  .00000009  00000+0 -38872-5 0  9993
2 41917  86.4008 155.5302 0002219  88.0329 272.1121 14.34217414470238
IRIDIUM 103             
1 41918U 17003B   26008.10359154  .00000060  00000+0  14537-4 0  9997
2 41918  86.4005 155.3485 0002231 104.6538 255.4905 14.34217190470287
IRIDIUM 109             
1 41919U 17003C   26008.10993329  .00000268  00000+0  88596-4 0  9992
2 41919  86.4006 155.4025 0002023  96.2517 263.8910 14.34217693470256
IRIDIUM 102             
1 41920U 17003D   26007.93867610  .00000303  00000+0  10102-3 0  9994
2 41920  86.4006 155.4009 0001901  94.8567 265.2846 14.34214596470313
IRIDIUM 105             
1 41921U 17003E   26008.04892258  .00000374  00000+0  12635-3 0  9995
2 41921  86.3995 123.8444 0002038  96.3651 263.7777 14.34211317472186
IRIDIUM 104             
1 41922U 17003F   26008.16067396  .00000011  00000+0 -32819-5 0  9993
2 41922  86.4011 155.3487 0001745 104.9046 255.2343 14.34217392470331
IRIDIUM 114             
1 41923U 17003G   26007.88794249  .00000309  00000+0  10342-3 0  9990
2 41923  86.4005 155.4462 0001968 100.0141 260.1277 14.34217861470274
IRIDIUM 108             
1 41924U 17003H   26007.84646387 -.00000011  00000+0 -11106-4 0  9998
2 41924  86.3992 123.8174 0001882  93.1931 266.9480 14.34217412472120
